1 47288U 20100AG  22355.44115022  .00000154  00000-0  39220-3 0  9997
2 47288  87.8949 243.7197 0001506  69.4484 290.6806 13.12442898 97599
1 47288U 20100AG  22356.43223143  .00000057  00000-0  12336-3 0  9992
2 47288  87.8947 243.5230 0001501  69.6358 290.4932 13.12443201 97722
1 47288U 20100AG  22357.19460180 -.00000081  00000-0 -26064-3 0  9992
2 47288  87.8946 243.3716 0001496  69.7374 290.3915 13.12443161 97826
1 47288U 20100AG  22357.42331321 -.00000167  00000-0 -49850-3 0  9995
2 47288  87.8946 243.3262 0001488  69.8082 290.3206 13.12442888 97851
1 47288U 20100AG  22357.72826146 -.00000242  00000-0 -70696-3 0  9998
2 47288  87.8946 243.2657 0001488  69.7135 290.4153 13.12443036 97898
1 47288U 20100AG  22358.18568397 -.00000172  00000-0 -51430-3 0  9997
2 47288  87.8946 243.1748 0001510  70.2226 289.9066 13.12442413 97953
1 47288U 20100AG  22359.10052907 -.00000337  00000-0 -97303-3 0  9997
2 47288  87.8949 242.9932 0001479  70.3728 289.7560 13.12442646 98079
1 47288U 20100AG  22359.40547774 -.00000361  00000-0 -10398-2 0  9996
2 47288  87.8947 242.9326 0001471  70.3547 289.7740 13.12442458 98111
1 47288U 20100AG  22359.63418973 -.00000409  00000-0 -11736-2 0  9999
2 47288  87.8947 242.8872 0001471  70.4916 289.6371 13.12441969 98145
1 47288U 20100AG  22360.39656129 -.00000365  00000-0 -10488-2 0  9995
2 47288  87.8948 242.7355 0001452  70.4989 289.6297 13.12442282 98247
1 47288U 20100AG  22360.39656129 -.00000365  00000-0 -10488-2 0  9995
2 47288  87.8948 242.7355 0001452  70.4989 289.6297 13.12442282 98247
1 47288U 20100AG  22361.38764601 -.00000247  00000-0 -72096-3 0  9993
2 47288  87.8947 242.5390 0001444  70.9548 289.1737 13.12441711 98374
1 47288U 20100AG  22362.07378200 -.00000151  00000-0 -45520-3 0  9992
2 47288  87.8946 242.4028 0001431  71.3333 288.7951 13.12441531 98466
1 47288U 20100AG  22362.07378200 -.00000151  00000-0 -45520-3 0  9992
2 47288  87.8946 242.4028 0001431  71.3333 288.7951 13.12441531 98466
1 47288U 20100AG  22363.36981706  .00000075  00000-0  17287-3 0  9998
2 47288  87.8943 242.1455 0001417  72.2688 287.8595 13.12441419 98639
1 47288U 20100AG  22363.36981706  .00000075  00000-0  17287-3 0  9998
2 47288  87.8943 242.1455 0001417  72.2688 287.8595 13.12441419 98639
1 47288U 20100AG  22364.36090164  .00000307  00000-0  81779-3 0  9993
2 47288  87.8944 241.9486 0001397  72.8549 287.2732 13.12442381 98760
1 47288U 20100AG  22364.74208866  .00000296  00000-0  78832-3 0  9998
2 47288  87.8944 241.8730 0001380  72.5473 287.5806 13.12442026 98813
1 47288U 20100AG  22365.42822402  .00000405  00000-0  10900-2 0  9995
2 47288  87.8940 241.7367 0001376  72.8692 287.2587 13.12442399 98901
1 47288U 20100AG  22365.73317264  .00000485  00000-0  13137-2 0  9997
2 47288  87.8941 241.6762 0001382  73.4104 286.7177 13.12442764 98941
1 47288U 20100AG  23001.03812216  .00000415  00000-0  11193-2 0  9998
2 47288  87.8941 241.6156 0001370  73.2302 286.8977 13.12442373 98982
1 47288U 20100AG  23001.41930762  .00000434  00000-0  11718-2 0  9991
2 47288  87.8940 241.5399 0001369  73.6010 286.5269 13.12443100 99034
1 47288U 20100AG  23001.95296796  .00000455  00000-0  12299-2 0  9990
2 47288  87.8940 241.4340 0001367  73.6867 286.4412 13.12442818 99109
1 47288U 20100AG  23002.41039019  .00000379  00000-0  10169-2 0  9994
2 47288  87.8939 241.3431 0001368  74.0523 286.0756 13.12443796 99161
1 47288U 20100AG  23002.41039019  .00000379  00000-0  10169-2 0  9994
2 47288  87.8939 241.3431 0001368  74.0523 286.0756 13.12443796 99161
1 47288U 20100AG  23002.94404952  .00000341  00000-0  91300-3 0  9990
2 47288  87.8939 241.2371 0001355  73.9618 286.1660 13.12444191 99235
1 47288U 20100AG  23003.63018349  .00000233  00000-0  61148-3 0  9995
2 47288  87.8939 241.1009 0001354  74.1256 286.0021 13.12443598 99322
1 47288U 20100AG  23003.63018349  .00000233  00000-0  61148-3 0  9995
2 47288  87.8939 241.1009 0001354  74.1256 286.0021 13.12443598 99322
1 47288U 20100AG  23004.39255329  .00000098  00000-0  23577-3 0  9993
2 47288  87.8938 240.9494 0001341  75.0420 285.0857 13.12443789 99424
1 47288U 20100AG  23004.92621189 -.00000006  00000-0 -52413-4 0  9996
2 47288  87.8938 240.8434 0001334  74.9555 285.1721 13.12444307 99491
1 47288U 20100AG  23005.07868538 -.00000005  00000-0 -50125-4 0  9991
2 47288  87.8938 240.8131 0001333  75.2854 284.8422 13.12444702 99516
1 47288U 20100AG  23005.38363378 -.00000017  00000-0 -83754-4 0  9994
2 47288  87.8938 240.7526 0001335  75.4627 284.6649 13.12443845 99555
1 47288U 20100AG  23006.37471491 -.00000299  00000-0 -86554-3 0  9992
2 47288  87.8936 240.5558 0001315  75.9959 284.1316 13.12443714 99682
1 47288U 20100AG  23006.37471491 -.00000299  00000-0 -86554-3 0  9992
2 47288  87.8936 240.5558 0001315  75.9959 284.1316 13.12443714 99682
1 47288U 20100AG  23007.06084744 -.00000304  00000-0 -87932-3 0  9998
2 47288  87.8937 240.4196 0001303  76.6535 283.4739 13.12444218 99776
1 47288U 20100AG  23007.59450749 -.00000386  00000-0 -11082-2 0  9990
2 47288  87.8936 240.3136 0001300  77.0983 283.0291 13.12443384 99847
1 47288U 20100AG  23007.89945568 -.00000408  00000-0 -11684-2 0  9994
2 47288  87.8936 240.2529 0001295  77.1941 282.9333 13.12443602 99882
1 47288U 20100AG  23008.35687807 -.00000316  00000-0 -91414-3 0  9993
2 47288  87.8934 240.1621 0001295  77.6059 282.5214 13.12443465 99945
1 47288U 20100AG  23008.89053836 -.00000404  00000-0 -11583-2 0  9997
2 47288  87.8934 240.0560 0001295  78.0721 282.0552 13.12443399100014
1 47288U 20100AG  23009.04301289 -.00000358  00000-0 -10314-2 0  9992
2 47288  87.8933 240.0258 0001299  78.4732 281.6542 13.12443071100030
1 47288U 20100AG  23009.34796140 -.00000282  00000-0 -82044-3 0  9995
2 47288  87.8933 239.9651 0001289  78.5386 281.5887 13.12443147100078
1 47288U 20100AG  23009.88162225 -.00000283  00000-0 -82093-3 0  9990
2 47288  87.8931 239.8591 0001281  78.9719 281.1553 13.12442819100143
1 47288U 20100AG  23010.11033367 -.00000162  00000-0 -48527-3 0  9992
2 47288  87.8928 239.8136 0001282  78.8710 281.2562 13.12442899100177
1 47288U 20100AG  23010.18657075 -.00000177  00000-0 -52736-3 0  9990
2 47288  87.8932 239.7985 0001279  79.1450 280.9823 13.12443211100180
1 47288U 20100AG  23011.33012985  .00000068  00000-0  15393-3 0  9998
2 47288  87.8931 239.5713 0001279  80.5942 279.5332 13.12442996100333
1 47288U 20100AG  23011.55884287 -.00000032  00000-0 -12549-3 0  9997
2 47288  87.8931 239.5260 0001318  81.4868 278.6410 13.12442194100361
1 47288U 20100AG  23011.86379107  .00000121  00000-0  30120-3 0  9993
2 47288  87.8931 239.4654 0001325  81.8759 278.2520 13.12443138100400
1 47288U 20100AG  23012.85487565  .00000295  00000-0  78341-3 0  9990
2 47288  87.8929 239.2685 0001326  82.3590 277.7689 13.12443281100532
1 47288U 20100AG  23012.85487565  .00000295  00000-0  78341-3 0  9990
2 47288  87.8929 239.2685 0001326  82.3590 277.7689 13.12443281100532
1 47288U 20100AG  23013.54101067  .00000395  00000-0  10621-2 0  9994
2 47288  87.8927 239.1322 0001316  82.9880 277.1398 13.12443540100623
1 47288U 20100AG  23013.92219713  .00000300  00000-0  79983-3 0  9997
2 47288  87.8926 239.0564 0001286  82.8044 277.3230 13.12443511100676
1 47288U 20100AG  23014.07467077  .00000485  00000-0  13130-2 0  9997
2 47288  87.8925 239.0261 0001285  82.6633 277.4642 13.12443919100692
1 47288U 20100AG  23015.37070154  .00000435  00000-0  11745-2 0  9992
2 47288  87.8924 238.7686 0001294  83.9556 276.1720 13.12444898100865
1 47288U 20100AG  23015.59941348  .00000387  00000-0  10408-2 0  9999
2 47288  87.8925 238.7232 0001295  83.9146 276.2130 13.12444155100894
1 47288U 20100AG  23015.90436116  .00000451  00000-0  12190-2 0  9998
2 47288  87.8927 238.6627 0001294  83.8122 276.3154 13.12444562100939
1 47288U 20100AG  23016.59049438  .00000286  00000-0  76020-3 0  9990
2 47288  87.8928 238.5263 0001293  83.8396 276.2880 13.12444881101027
1 47288U 20100AG  23016.66673100  .00000295  00000-0  78529-3 0  9993
2 47288  87.8929 238.5112 0001291  83.8403 276.2872 13.12445289101033
1 47288U 20100AG  23016.89544189  .00000294  00000-0  78234-3 0  9994
2 47288  87.8929 238.4658 0001287  84.0606 276.0669 13.12445172101066
1 47288U 20100AG  23017.35286337  .00000219  00000-0  57243-3 0  9998
2 47288  87.8928 238.3749 0001284  84.7485 275.3790 13.12445338101122
1 47288U 20100AG  23018.11523273  .00000061  00000-0  13327-3 0  9996
2 47288  87.8927 238.2234 0001276  85.4140 274.7134 13.12445200101220
1 47288U 20100AG  23018.57265424 -.00000017  00000-0 -82552-4 0  9997
2 47288  87.8927 238.1325 0001270  85.5605 274.5669 13.12445188101283
1 47288U 20100AG  23018.87760216 -.00000151  00000-0 -45606-3 0  9996
2 47288  87.8927 238.0719 0001265  85.5610 274.5663 13.12445112101325
1 47288U 20100AG  23019.33502345 -.00000161  00000-0 -48196-3 0  9993
2 47288  87.8927 237.9809 0001306  86.2755 273.8523 13.12445017101384
1 47288U 20100AG  23019.56373404 -.00000194  00000-0 -57437-3 0  9994
2 47288  87.8925 237.9355 0001303  86.2352 273.8926 13.12445286101417
1 47288U 20100AG  23020.32610267 -.00000248  00000-0 -72437-3 0  9998
2 47288  87.8925 237.7840 0001293  87.0227 273.1049 13.12445614101517
1 47288U 20100AG  23020.63105099 -.00000344  00000-0 -99114-3 0  9992
2 47288  87.8927 237.7235 0001301  87.2253 272.9025 13.12445245101553
1 47288U 20100AG  23022.07955443 -.00000355  00000-0 -10233-2 0  9994
2 47288  87.8925 237.4354 0001295  88.3256 271.8021 13.12444636101745
1 47288U 20100AG  23023.83300895 -.00000208  00000-0 -61302-3 0  9995
2 47288  87.8925 237.0870 0001305  90.7512 269.3766 13.12443771101970
1 47288U 20100AG  23025.12904098  .00000046  00000-0  93368-4 0  9990
2 47288  87.8926 236.8293 0001306  92.0751 268.0527 13.12444129102147
1 47288U 20100AG  23025.58646437  .00000116  00000-0  28845-3 0  9995
2 47288  87.8924 236.7386 0001303  91.6520 268.4758 13.12443986102200
1 47288U 20100AG  23025.81517576  .00000189  00000-0  49021-3 0  9991
2 47288  87.8924 236.6932 0001305  91.8696 268.2582 13.12444185102232
